ONEWEB-0094             
1 45450U 20020AC  25335.61702832 -.00000031  00000+0 -11247-3 0  9992
2 45450  87.9132  45.1206 0001864  99.7761 260.3581 13.17650965280295
ONEWEB-0087             
1 45451U 20020AD  25335.80410267 -.00000554  00000+0 -15999-2 0  9999
2 45451  87.8880  60.3196 0001975 107.6136 252.5208 13.11416270276714
ONEWEB-0082             
1 45452U 20020AE  25335.80084925 -.00000492  00000+0 -14242-2 0  9999
2 45452  87.8881  60.3456 0001892 106.2894 253.8442 13.11415928276802
ONEWEB-0050             
1 45453U 20020AF  25335.82372941  .00003888  00000+0  40711-3 0  9991
2 45453  88.9228 260.1325 0003039  19.0228 341.1113 14.89417988310991
ONEWEB-0034             
1 45454U 20020AG  25335.66944405 -.00000385  00000+0 -11232-2 0  9990
2 45454  87.8872  60.3870 0001678 103.4938 256.6377 13.11418807276700
ONEWEB-0060             
1 45455U 20020AH  25335.71692559 -.00000269  00000+0 -79532-3 0  9996
2 45455  87.8859  60.3960 0002743 110.3135 249.8288 13.11413781276662
ONEWEB-0086             
1 45456U 20020AJ  25335.77204911  .00000517  00000+0  14230-2 0  9991
2 45456  87.8870  60.3635 0002361  93.8966 266.2432 13.11416110276739
ONEWEB-0088             
1 45457U 20020AK  25335.67369603  .00000033  00000+0  56155-4 0  9998
2 45457  87.8883  60.3372 0001625 108.2033 251.9272 13.11419050276650
